[{"OBJECT_NAME":"ONEWEB-0125","OBJECT_ID":"2020-100P","EPOCH":"2025-11-16T14:59:15.777888","MEAN_MOTION":13.12442435,"ECCENTRICITY":0.00015749,"INCLINATION":87.8972,"RA_OF_ASC_NODE":32.8754,"ARG_OF_PERICENTER":106.6904,"MEAN_ANOMALY":253.4397,"EPHEMERIS_TYPE":0,"CLASSIFICATION_TYPE":"U","NORAD_CAT_ID":47271,"ELEMENT_SET_NO":999,"REV_AT_EPOCH":23675,"BSTAR":-0.00098864123,"MEAN_MOTION_DOT":-3.43e-6,"MEAN_MOTION_DDOT":0},{"OBJECT_NAME":"ONEWEB-0126","OBJECT_ID":"2020-100Q","EPOCH":"2025-11-16T15:29:50.640864","MEAN_MOTION":13.12442587,"ECCENTRICITY":0.0001731,"INCLINATION":87.8972,"RA_OF_ASC_NODE":32.8949,"ARG_OF_PERICENTER":97.2922,"MEAN_ANOMALY":262.8404,"EPHEMERIS_TYPE":0,"CLASSIFICATION_TYPE":"U","NORAD_CAT_ID":47272,"ELEMENT_SET_NO":999,"REV_AT_EPOCH":23682,"BSTAR":0.00052287,"MEAN_MOTION_DOT":2.01e-6,"MEAN_MOTION_DDOT":0},{"OBJECT_NAME":"ONEWEB-0127","OBJECT_ID":"2020-100R","EPOCH":"2025-11-16T05:31:40.298592","MEAN_MOTION":13.12441336,"ECCENTRICITY":0.00018091,"INCLINATION":87.8973,"RA_OF_ASC_NODE":32.9888,"ARG_OF_PERICENTER":97.763,"MEAN_ANOMALY":262.3704,"EPHEMERIS_TYPE":0,"CLASSIFICATION_TYPE":"U","NORAD_CAT_ID":47273,"ELEMENT_SET_NO":999,"REV_AT_EPOCH":23679,"BSTAR":-0.0010261722,"MEAN_MOTION_DOT":-3.56e-6,"MEAN_MOTION_DDOT":0},{"OBJECT_NAME":"ONEWEB-0128","OBJECT_ID":"2020-100S","EPOCH":"2025-11-16T11:33:43.552512","MEAN_MOTION":13.1244381,"ECCENTRICITY":0.00020614,"INCLINATION":87.8961,"RA_OF_ASC_NODE":32.9572,"ARG_OF_PERICENTER":100.5056,"MEAN_ANOMALY":259.6305,"EPHEMERIS_TYPE":0,"CLASSIFICATION_TYPE":"U","NORAD_CAT_ID":47274,"ELEMENT_SET_NO":999,"REV_AT_EPOCH":23684,"BSTAR":3.7886475e-5,"MEAN_MOTION_DOT":2.6e-7,"MEAN_MOTION_DDOT":0},{"OBJECT_NAME":"ONEWEB-0129","OBJECT_ID":"2020-100T","EPOCH":"2025-11-16T11:03:20.893536","MEAN_MOTION":13.12441601,"ECCENTRICITY":0.00021661,"INCLINATION":87.8974,"RA_OF_ASC_NODE":32.9118,"ARG_OF_PERICENTER":69.0809,"MEAN_ANOMALY":291.0551,"EPHEMERIS_TYPE":0,"CLASSIFICATION_TYPE":"U","NORAD_CAT_ID":47275,"ELEMENT_SET_NO":999,"REV_AT_EPOCH":23677,"BSTAR":-0.0011358833,"MEAN_MOTION_DOT":-3.96e-6,"MEAN_MOTION_DDOT":0},{"OBJECT_NAME":"ONEWEB-0130","OBJECT_ID":"2020-100U","EPOCH":"2025-11-16T15:22:38.144064","MEAN_MOTION":13.1244243,"ECCENTRICITY":0.0001908,"INCLINATION":87.8974,"RA_OF_ASC_NODE":32.872,"ARG_OF_PERICENTER":99.7382,"MEAN_ANOMALY":260.3962,"EPHEMERIS_TYPE":0,"CLASSIFICATION_TYPE":"U","NORAD_CAT_ID":47276,"ELEMENT_SET_NO":999,"REV_AT_EPOCH":23676,"BSTAR":0.00010875,"MEAN_MOTION_DOT":5.2e-7,"MEAN_MOTION_DDOT":0},{"OBJECT_NAME":"ONEWEB-0131","OBJECT_ID":"2020-100V","EPOCH":"2025-11-16T15:17:57.909984","MEAN_MOTION":13.12442739,"ECCENTRICITY":0.000182,"INCLINATION":87.8973,"RA_OF_ASC_NODE":32.9026,"ARG_OF_PERICENTER":102.1458,"MEAN_ANOMALY":257.9874,"EPHEMERIS_TYPE":0,"CLASSIFICATION_TYPE":"U","NORAD_CAT_ID":47277,"ELEMENT_SET_NO":999,"REV_AT_EPOCH":23680,"BSTAR":-3.8476e-5,"MEAN_MOTION_DOT":-1.0e-8,"MEAN_MOTION_DDOT":0},{"OBJECT_NAME":"ONEWEB-0132","OBJECT_ID":"2020-100W","EPOCH":"2025-11-16T16:00:00.737280","MEAN_MOTION":13.12440451,"ECCENTRICITY":0.0001834,"INCLINATION":87.8974,"RA_OF_ASC_NODE":32.8986,"ARG_OF_PERICENTER":101.5828,"MEAN_ANOMALY":258.5506,"EPHEMERIS_TYPE":0,"CLASSIFICATION_TYPE":"U","NORAD_CAT_ID":47278,"ELEMENT_SET_NO":999,"REV_AT_EPOCH":23670,"BSTAR":0.00067301,"MEAN_MOTION_DOT":2.55e-6,"MEAN_MOTION_DDOT":0},{"OBJECT_NAME":"ONEWEB-0133","OBJECT_ID":"2020-100X","EPOCH":"2025-11-16T05:24:28.490400","MEAN_MOTION":13.12441415,"ECCENTRICITY":0.00019069,"INCLINATION":87.8965,"RA_OF_ASC_NODE":32.9495,"ARG_OF_PERICENTER":103.7171,"MEAN_ANOMALY":256.417,"EPHEMERIS_TYPE":0,"CLASSIFICATION_TYPE":"U","NORAD_CAT_ID":47279,"ELEMENT_SET_NO":999,"REV_AT_EPOCH":23680,"BSTAR":-0.00088191942,"MEAN_MOTION_DOT":-3.05e-6,"MEAN_MOTION_DDOT":0},{"OBJECT_NAME":"ONEWEB-0134","OBJECT_ID":"2020-100Y","EPOCH":"2025-11-16T15:38:59.858016","MEAN_MOTION":13.1244211,"ECCENTRICITY":0.0002049,"INCLINATION":87.8971,"RA_OF_ASC_NODE":32.8582,"ARG_OF_PERICENTER":97.8856,"MEAN_ANOMALY":262.2506,"EPHEMERIS_TYPE":0,"CLASSIFICATION_TYPE":"U","NORAD_CAT_ID":47280,"ELEMENT_SET_NO":999,"REV_AT_EPOCH":23683,"BSTAR":0.0010145,"MEAN_MOTION_DOT":3.78e-6,"MEAN_MOTION_DDOT":0},{"OBJECT_NAME":"ONEWEB-0135","OBJECT_ID":"2020-100Z","EPOCH":"2025-11-16T14:56:56.019840","MEAN_MOTION":13.12442526,"ECCENTRICITY":0.00022099,"INCLINATION":87.8972,"RA_OF_ASC_NODE":32.9042,"ARG_OF_PERICENTER":99.9008,"MEAN_ANOMALY":260.237,"EPHEMERIS_TYPE":0,"CLASSIFICATION_TYPE":"U","NORAD_CAT_ID":47281,"ELEMENT_SET_NO":999,"REV_AT_EPOCH":23685,"BSTAR":-0.0011464459,"MEAN_MOTION_DOT":-4.0e-6,"MEAN_MOTION_DDOT":0},{"OBJECT_NAME":"ONEWEB-0136","OBJECT_ID":"2020-100AA","EPOCH":"2025-11-16T15:24:58.303008","MEAN_MOTION":13.12442481,"ECCENTRICITY":0.0002115,"INCLINATION":87.8972,"RA_OF_ASC_NODE":32.8692,"ARG_OF_PERICENTER":94.3682,"MEAN_ANOMALY":265.7688,"EPHEMERIS_TYPE":0,"CLASSIFICATION_TYPE":"U","NORAD_CAT_ID":47282,"ELEMENT_SET_NO":999,"REV_AT_EPOCH":23678,"BSTAR":0.00038195,"MEAN_MOTION_DOT":1.5e-6,"MEAN_MOTION_DDOT":0},{"OBJECT_NAME":"ONEWEB-0137","OBJECT_ID":"2020-100AB","EPOCH":"2025-11-16T16:14:00.993696","MEAN_MOTION":13.12440548,"ECCENTRICITY":0.0001615,"INCLINATION":87.8973,"RA_OF_ASC_NODE":32.8682,"ARG_OF_PERICENTER":97.8142,"MEAN_ANOMALY":262.317,"EPHEMERIS_TYPE":0,"CLASSIFICATION_TYPE":"U","NORAD_CAT_ID":47283,"ELEMENT_SET_NO":999,"REV_AT_EPOCH":23669,"BSTAR":-0.00019126,"MEAN_MOTION_DOT":-5.6e-7,"MEAN_MOTION_DDOT":0},{"OBJECT_NAME":"ONEWEB-0138","OBJECT_ID":"2020-100AC","EPOCH":"2025-11-16T15:43:39.616032","MEAN_MOTION":13.12441737,"ECCENTRICITY":0.000197,"INCLINATION":87.8971,"RA_OF_ASC_NODE":32.8817,"ARG_OF_PERICENTER":97.8336,"MEAN_ANOMALY":262.3016,"EPHEMERIS_TYPE":0,"CLASSIFICATION_TYPE":"U","NORAD_CAT_ID":47284,"ELEMENT_SET_NO":999,"REV_AT_EPOCH":23677,"BSTAR":0.001076,"MEAN_MOTION_DOT":4.0e-6,"MEAN_MOTION_DDOT":0},{"OBJECT_NAME":"ONEWEB-0139","OBJECT_ID":"2020-100AD","EPOCH":"2025-11-16T11:10:34.472064","MEAN_MOTION":13.12443602,"ECCENTRICITY":0.0001787,"INCLINATION":87.8968,"RA_OF_ASC_NODE":32.9085,"ARG_OF_PERICENTER":101.0744,"MEAN_ANOMALY":259.0585,"EPHEMERIS_TYPE":0,"CLASSIFICATION_TYPE":"U","NORAD_CAT_ID":47285,"ELEMENT_SET_NO":999,"REV_AT_EPOCH":23682,"BSTAR":-0.0010667,"MEAN_MOTION_DOT":-3.71e-6,"MEAN_MOTION_DDOT":0},{"OBJECT_NAME":"ONEWEB-0140","OBJECT_ID":"2020-100AE","EPOCH":"2025-11-16T15:34:18.974208","MEAN_MOTION":13.12442398,"ECCENTRICITY":0.0001877,"INCLINATION":87.8967,"RA_OF_ASC_NODE":32.8588,"ARG_OF_PERICENTER":99.2283,"MEAN_ANOMALY":260.9058,"EPHEMERIS_TYPE":0,"CLASSIFICATION_TYPE":"U","NORAD_CAT_ID":47286,"ELEMENT_SET_NO":999,"REV_AT_EPOCH":23681,"BSTAR":0.0010414,"MEAN_MOTION_DOT":3.87e-6,"MEAN_MOTION_DDOT":0},{"OBJECT_NAME":"ONEWEB-0141","OBJECT_ID":"2020-100AF","EPOCH":"2025-11-16T11:10:10.187616","MEAN_MOTION":13.12442428,"ECCENTRICITY":0.00014529,"INCLINATION":87.8965,"RA_OF_ASC_NODE":32.9061,"ARG_OF_PERICENTER":96.3465,"MEAN_ANOMALY":263.7829,"EPHEMERIS_TYPE":0,"CLASSIFICATION_TYPE":"U","NORAD_CAT_ID":47287,"ELEMENT_SET_NO":999,"REV_AT_EPOCH":23677,"BSTAR":-0.0011705074,"MEAN_MOTION_DOT":-4.08e-6,"MEAN_MOTION_DDOT":0}]
