ONEWEB-0125             
1 47271U 20100P   25320.62448817 -.00000343  00000+0 -98864-3 0  9995
2 47271  87.8972  32.8754 0001574 106.6904 253.4397 13.12442435236751
ONEWEB-0126             
1 47272U 20100Q   25320.64572501  .00000201  00000+0  52287-3 0  9996
2 47272  87.8972  32.8949 0001731  97.2922 262.8404 13.12442587236827
ONEWEB-0127             
1 47273U 20100R   25320.23032753 -.00000356  00000+0 -10262-2 0  9991
2 47273  87.8973  32.9888 0001809  97.7630 262.3704 13.12441336236794
ONEWEB-0128             
1 47274U 20100S   25320.48175408  .00000026  00000+0  37886-4 0  9999
2 47274  87.8961  32.9572 0002061 100.5056 259.6305 13.12443810236849
ONEWEB-0129             
1 47275U 20100T   25320.46065849 -.00000396  00000+0 -11359-2 0  9992
2 47275  87.8974  32.9118 0002166  69.0809 291.0551 13.12441601236772
ONEWEB-0130             
1 47276U 20100U   25320.64071926  .00000052  00000+0  10875-3 0  9996
2 47276  87.8974  32.8720 0001908  99.7382 260.3962 13.12442430236765
ONEWEB-0131             
1 47277U 20100V   25320.63747581 -.00000001  00000+0 -38476-4 0  9997
2 47277  87.8973  32.9026 0001820 102.1458 257.9874 13.12442739236802
ONEWEB-0132             
1 47278U 20100W   25320.66667520  .00000255  00000+0  67301-3 0  9992
2 47278  87.8974  32.8986 0001834 101.5828 258.5506 13.12440451236704
ONEWEB-0133             
1 47279U 20100X   25320.22532975 -.00000305  00000+0 -88192-3 0  9999
2 47279  87.8965  32.9495 0001906 103.7171 256.4170 13.12441415236802
ONEWEB-0134             
1 47280U 20100Y   25320.65208169  .00000378  00000+0  10145-2 0  9993
2 47280  87.8971  32.8582 0002049  97.8856 262.2506 13.12442110236833
ONEWEB-0135             
1 47281U 20100Z   25320.62287060 -.00000400  00000+0 -11464-2 0  9991
2 47281  87.8972  32.9042 0002209  99.9008 260.2370 13.12442526236857
ONEWEB-0136             
1 47282U 20100AA  25320.64234147  .00000150  00000+0  38195-3 0  9993
2 47282  87.8972  32.8692 0002115  94.3682 265.7688 13.12442481236785
ONEWEB-0137             
1 47283U 20100AB  25320.67640039 -.00000056  00000+0 -19126-3 0  9998
2 47283  87.8973  32.8682 0001615  97.8142 262.3170 13.12440548236690
ONEWEB-0138             
1 47284U 20100AC  25320.65531963  .00000400  00000+0  10760-2 0  9997
2 47284  87.8971  32.8817 0001970  97.8336 262.3016 13.12441737236777
ONEWEB-0139             
1 47285U 20100AD  25320.46567676 -.00000371  00000+0 -10667-2 0  9992
2 47285  87.8968  32.9085 0001787 101.0744 259.0585 13.12443602236822
ONEWEB-0140             
1 47286U 20100AE  25320.64883072  .00000387  00000+0  10414-2 0  9999
2 47286  87.8967  32.8588 0001877  99.2283 260.9058 13.12442398236811
ONEWEB-0141             
1 47287U 20100AF  25320.46539569 -.00000408  00000+0 -11705-2 0  9999
2 47287  87.8965  32.9061 0001452  96.3465 263.7829 13.12442428236772
